ONEWEB-0086             
1 45456U 20020AJ  23322.42012341 -.00000813  00000+0 -23300-2 0  9990
2 45456  87.8998 208.1770 0001591  57.3035 302.8246 13.11418467179175
ONEWEB-0088             
1 45457U 20020AK  23322.39740341 -.00000194  00000+0 -58287-3 0  9990
2 45457  87.8985 208.1603 0001648  70.1714 289.9592 13.11414691179104
ONEWEB-0102             
1 47258U 20100A   23322.83474895  .00000283  00000+0  75392-3 0  9990
2 47258  87.9022 177.8970 0001483  90.9642 269.1656 13.12193350141257
ONEWEB-0109             
1 47259U 20100B   23322.84411548  .00000939  00000+0  25641-2 0  9997
2 47259  87.9013 177.8607 0002055  84.8552 275.2812 13.12685371141085
ONEWEB-0110             
1 47260U 20100C   23322.10535550  .00001645  00000+0  45265-2 0  9997
2 47260  87.9011 178.0215 0001005  84.8409 275.2834 13.12582042141151
ONEWEB-0111             
1 47261U 20100D   23322.82391412  .00000816  00000+0  22385-2 0  9991
2 47261  87.9020 177.8673 0001558  89.6037 270.5270 13.12289731141083
ONEWEB-0114             
1 47262U 20100E   23322.54999546 -.00000594  00000+0 -16841-2 0  9998
2 47262  87.9020 177.9440 0001646 102.3030 257.8283 13.12587262141005
ONEWEB-0117             
1 47263U 20100F   23322.54176462 -.00000188  00000+0 -55816-3 0  9998
2 47263  87.8965 177.9229 0001726  75.2431 284.8889 13.12494494141017
